[{"OBJECT_NAME":"CHUANGXIN 1-04 (CX-1-04)","OBJECT_ID":"2014-051B","EPOCH":"2026-03-09T23:17:42.810432","MEAN_MOTION":14.30385817,"ECCENTRICITY":0.00233905,"INCLINATION":98.7069,"RA_OF_ASC_NODE":70.7142,"ARG_OF_PERICENTER":104.1594,"MEAN_ANOMALY":256.2189,"EPHEMERIS_TYPE":0,"CLASSIFICATION_TYPE":"U","NORAD_CAT_ID":40137,"ELEMENT_SET_NO":999,"REV_AT_EPOCH":60036,"BSTAR":5.5260038e-5,"MEAN_MOTION_DOT":9.9e-7,"MEAN_MOTION_DDOT":0},{"OBJECT_NAME":"THORAD AGENA D DEB","OBJECT_ID":"1970-025DC","EPOCH":"2026-03-09T10:27:04.925088","MEAN_MOTION":14.35146425,"ECCENTRICITY":0.00096193,"INCLINATION":99.5965,"RA_OF_ASC_NODE":20.7606,"ARG_OF_PERICENTER":205.0118,"MEAN_ANOMALY":155.0599,"EPHEMERIS_TYPE":0,"CLASSIFICATION_TYPE":"U","NORAD_CAT_ID":4754,"ELEMENT_SET_NO":999,"REV_AT_EPOCH":81949,"BSTAR":0.0032231009,"MEAN_MOTION_DOT":9.171e-5,"MEAN_MOTION_DDOT":0}]
